NORAD_CAT_ID,OBJECT_NAME,OBJECT_TYPE,EPOCH,MEAN_MOTION,ECCENTRICITY,INCLINATION,RA_OF_ASC_NODE,ARG_OF_PERICENTER,MEAN_ANOMALY,BSTAR,MEAN_MOTION_DOT,MEAN_MOTION_DDOT,TLE_LINE0,TLE_LINE1,TLE_LINE2,SEMIMAJOR_AXIS,PERIOD,APOGEE,PERIGEE,DECAYED
55405.0,STARLINK-5623,PAYLOAD,2023-04-06 17:40:11,15.69909841,0.0003491,69.9989,266.7985,273.7762,86.3035,7.0399e-05,8.256e-05,0.0,0 STARLINK-5623,1 55405U 23014Q   23096.73624273  .00008256  00000-0  70399-4 0  9996,2 55405  69.9989 266.7985 0003491 273.7762  86.3035 15.69909841 10418,6737.292,91.725,361.509,356.805,0.0
55405.0,STARLINK-5623,PAYLOAD,2023-04-07 12:01:12,15.69928709,0.0003378,69.9976,264.6471,269.9018,90.1791,-1.9472e-06,-4.47e-06,0.0,0 STARLINK-5623,1 55405U 23014Q   23097.50083938 -.00000447  00000-0 -19472-5 0  9991,2 55405  69.9976 264.6471 0003378 269.9018  90.1791 15.69928709 10535,6737.238,91.724,361.379,356.827,0.0
55405.0,STARLINK-5623,PAYLOAD,2023-04-07 21:11:44,15.6990558,0.0003374,69.997,263.5723,269.6373,90.4436,3.4458e-05,3.929e-05,0.0,0 STARLINK-5623,1 55405U 23014Q   23097.88314936  .00003929  00000-0  34458-4 0  9993,2 55405  69.9970 263.5723 0003374 269.6373  90.4436 15.69905580 10591,6737.304,91.725,361.442,356.896,0.0
55405.0,STARLINK-5623,PAYLOAD,2023-04-08 12:29:12,15.69952753,0.0003545,69.9971,261.7804,267.8752,92.2038,4.3283e-05,5.001e-05,0.0,0 STARLINK-5623,1 55405U 23014Q   23098.52028321  .00005001  00000-0  43283-4 0  9994,2 55405  69.9971 261.7804 0003545 267.8752  92.2038 15.69952753 10696,6737.169,91.723,361.423,356.646,0.0
55405.0,STARLINK-5623,PAYLOAD,2023-04-08 17:04:28,15.69939035,0.0003278,69.9989,261.2436,272.2128,87.8693,2.7644e-05,3.114e-05,0.0,0 STARLINK-5623,1 55405U 23014Q   23098.71144454  .00003114  00000-0  27644-4 0  9997,2 55405  69.9989 261.2436 0003278 272.2128  87.8693 15.69939035 10720,6737.208,91.723,361.282,356.865,0.0
55405.0,STARLINK-5623,PAYLOAD,2023-04-09 03:46:45,15.69923501,0.0003592,69.9973,259.9884,272.5371,87.5414,7.1432e-06,6.46e-06,0.0,0 STARLINK-5623,1 55405U 23014Q   23099.15747444  .00000646  00000-0  71432-5 0  9996,2 55405  69.9973 259.9884 0003592 272.5371  87.5414 15.69923501 10792,6737.253,91.724,361.538,356.698,0.0
55405.0,STARLINK-5623,PAYLOAD,2023-04-09 11:25:31,15.69920635,0.0003508,69.9977,259.0942,267.2282,92.8512,9.1309e-06,8.85e-06,0.0,0 STARLINK-5623,1 55405U 23014Q   23099.47605980  .00000885  00000-0  91309-5 0  9999,2 55405  69.9977 259.0942 0003508 267.2282  92.8512 15.69920635 11784,6737.261,91.724,361.489,356.763,0.0
55405.0,STARLINK-5623,PAYLOAD,2023-04-09 12:57:16,15.69929284,0.0003348,69.9982,258.9136,273.3847,86.6965,-7.3538e-06,-1.097e-05,0.0,0 STARLINK-5623,1 55405U 23014Q   23099.53977429 -.00001097  00000-0 -73538-5 0  9998,2 55405  69.9982 258.9136 0003348 273.3847  86.6965 15.69929284 11793,6737.236,91.724,361.357,356.846,0.0
55405.0,STARLINK-5623,PAYLOAD,2023-04-10 10:21:48,15.69940699,0.0003459,69.9977,256.4067,266.4518,93.6282,-2.0221e-05,-2.645e-05,0.0,0 STARLINK-5623,1 55405U 23014Q   23100.43180576 -.00002645  00000-0 -20221-4 0  9999,2 55405  69.9977 256.4067 0003459 266.4518  93.6282 15.69940699 10998,6737.204,91.723,361.399,356.738,0.0
55405.0,STARLINK-5623,PAYLOAD,2023-04-10 16:28:47,15.6995069,0.0003752,69.999,255.6916,272.2737,87.8029,-6.4934e-06,-9.95e-06,0.0,0 STARLINK-5623,1 55405U 23014Q   23100.68666144 -.00000995  00000-0 -64934-5 0  9992,2 55405  69.9990 255.6916 0003752 272.2737  87.8029 15.69950690 11976,6737.175,91.723,361.568,356.512,0.0
55405.0,STARLINK-5623,PAYLOAD,2023-04-11 03:11:05,15.69908635,0.0004002,69.9988,254.4351,268.7502,91.3235,-7.5523e-06,-1.121e-05,0.0,0 STARLINK-5623,1 55405U 23014Q   23101.13270245 -.00001121  00000-0 -75523-5 0  9994,2 55405  69.9988 254.4351 0004002 268.7502  91.3235 15.69908635 11108,6737.295,91.725,361.857,356.464,0.0
55405.0,STARLINK-5623,PAYLOAD,2023-04-11 12:21:36,15.69918034,0.0003209,69.9998,253.3624,262.2344,97.8487,9.9925e-07,-9.3e-07,0.0,0 STARLINK-5623,1 55405U 23014Q   23101.51500031 -.00000093  00000-0  99925-6 0  9994,2 55405  69.9998 253.3624 0003209 262.2344  97.8487 15.69918034 12106,6737.269,91.725,361.295,356.972,0.0
55405.0,STARLINK-5623,PAYLOAD,2023-04-11 20:00:20,15.69933626,0.0003367,69.9972,252.4645,265.7454,94.3357,1.5619e-05,1.666e-05,0.0,0 STARLINK-5623,1 55405U 23014Q   23101.83357016  .00001666  00000-0  15619-4 0  9994,2 55405  69.9972 252.4645 0003367 265.7454  94.3357 15.69933626 12153,6737.224,91.724,361.357,356.82,0.0
55405.0,STARLINK-5623,PAYLOAD,2023-04-12 11:17:52,15.6993108,0.0003823,69.9983,250.6744,272.2894,87.7864,1.3417e-06,-5.2e-07,0.0,0 STARLINK-5623,1 55405U 23014Q   23102.47074223 -.00000052  00000-0  13417-5 0  9995,2 55405  69.9983 250.6744 0003823 272.2894  87.7864 15.69931080 12255,6737.231,91.724,361.672,356.521,0.0
55405.0,STARLINK-5623,PAYLOAD,2023-04-13 10:14:09,15.69911755,0.0003465,69.9959,247.9853,267.1769,92.903,1.9479e-05,2.129e-05,0.0,0 STARLINK-5623,1 55405U 23014Q   23103.42650246  .00002129  00000-0  19479-4 0  9995,2 55405  69.9959 247.9853 0003465 267.1769  92.9030 15.69911755 12401,6737.286,91.725,361.486,356.817,0.0
55405.0,STARLINK-5623,PAYLOAD,2023-04-14 12:13:56,15.69929053,0.0003468,69.9979,244.9404,267.5899,92.4899,9.8859e-06,9.76e-06,0.0,0 STARLINK-5623,1 55405U 23014Q   23104.50967661  .00000976  00000-0  98859-5 0  9995,2 55405  69.9979 244.9404 0003468 267.5899  92.4899 15.69929053 12579,6737.237,91.724,361.438,356.766,0.0
55405.0,STARLINK-5623,PAYLOAD,2023-04-15 11:10:13,15.69918581,0.0003277,69.9967,242.2509,263.6737,96.4086,1.3697e-05,1.434e-05,0.0,0 STARLINK-5623,1 55405U 23014Q   23105.46543269  .00001434  00000-0  13697-4 0  9991,2 55405  69.9967 242.2509 0003277 263.6737  96.4086 15.69918581 11787,6737.267,91.725,361.34,356.924,0.0
55405.0,STARLINK-5623,PAYLOAD,2023-04-15 18:48:58,15.69925848,0.0003077,69.9985,241.3584,258.1661,101.919,1.6418e-05,1.762e-05,0.0,0 STARLINK-5623,1 55405U 23014Q   23105.78401373  .00001762  00000-0  16418-4 0  9993,2 55405  69.9985 241.3584 0003077 258.1661 101.9190 15.69925848 12775,6737.246,91.724,361.184,357.038,0.0
55405.0,STARLINK-5623,PAYLOAD,2023-04-16 11:38:15,15.69919039,0.0003213,69.999,239.3875,268.6112,91.4716,3.8256e-06,2.47e-06,0.0,0 STARLINK-5623,1 55405U 23014Q   23106.48490445  .00000247  00000-0  38256-5 0  9991,2 55405  69.9990 239.3875 0003213 268.6112  91.4716 15.69919039 11940,6737.266,91.724,361.295,356.966,0.0
55405.0,STARLINK-5623,PAYLOAD,2023-04-16 17:45:15,15.69934772,0.0003005,69.9997,238.6726,260.5223,99.5633,1.1579e-07,-1.99e-06,0.0,0 STARLINK-5623,1 55405U 23014Q   23106.73976120 -.00000199  00000-0  11579-6 0  9995,2 55405  69.9997 238.6726 0003005 260.5223  99.5633 15.69934772 12924,6737.221,91.724,361.11,357.061,0.0
55405.0,STARLINK-5623,PAYLOAD,2023-04-17 12:06:17,15.69918034,0.0002699,70.0001,236.5221,258.1653,101.924,2.8863e-05,3.258e-05,0.0,0 STARLINK-5623,1 55405U 23014Q   23107.50436851  .00003258  00000-0  28863-4 0  9993,2 55405  70.0001 236.5221 0002699 258.1653 101.9240 15.69918034 13047,6737.269,91.725,360.952,357.315,0.0
55405.0,STARLINK-5623,PAYLOAD,2023-04-17 18:13:17,15.69925298,0.0002796,69.9998,235.805,259.0136,101.0745,1.3286e-05,1.385e-05,0.0,0 STARLINK-5623,1 55405U 23014Q   23107.75923250  .00001385  00000-0  13286-4 0  9996,2 55405  69.9998 235.8050 0002796 259.0136 101.0745 15.69925298 13080,6737.248,91.724,360.996,357.229,0.0
55405.0,STARLINK-5623,PAYLOAD,2023-04-18 09:30:49,15.69916045,0.0003544,69.9984,234.0137,267.9832,92.0957,2.4183e-05,2.695e-05,0.0,0 STARLINK-5623,1 55405U 23014Q   23108.39640464  .00002695  00000-0  24183-4 0  9993,2 55405  69.9984 234.0137 0003544 267.9832  92.0957 15.69916045 13180,6737.274,91.725,361.527,356.752,0.0
55405.0,STARLINK-5623,PAYLOAD,2023-04-18 17:09:34,15.69923298,0.0003285,69.9989,233.118,264.6142,95.4679,1.63e-05,1.748e-05,0.0,0 STARLINK-5623,1 55405U 23014Q   23108.71498638  .00001748  00000-0  16300-4 0  9993,2 55405  69.9989 233.1180 0003285 264.6142  95.4679 15.69923298 12290,6737.253,91.724,361.332,356.905,0.0
55405.0,STARLINK-5623,PAYLOAD,2023-04-19 08:27:05,15.69929391,0.0003288,70.0003,231.3255,262.2067,97.8756,1.5438e-05,1.644e-05,0.0,0 STARLINK-5623,1 55405U 23014Q   23109.35214900  .00001644  00000-0  15438-4 0  9998,2 55405  70.0003 231.3255 0003288 262.2067  97.8756 15.69929391 13334,6737.236,91.724,361.316,356.886,0.0
55405.0,STARLINK-5623,PAYLOAD,2023-04-19 17:37:36,15.69924756,0.000354,69.9998,230.2504,266.3172,93.7619,4.7118e-06,3.54e-06,0.0,0 STARLINK-5623,1 55405U 23014Q   23109.73445137  .00000354  00000-0  47118-5 0  9996,2 55405  69.9998 230.2504 0003540 266.3172  93.7619 15.69924756 13391,6737.249,91.724,361.499,356.729,0.0
55405.0,STARLINK-5623,PAYLOAD,2023-04-20 08:55:08,15.6992156,0.0003651,69.9997,228.4593,264.7583,95.3196,4.0996e-06,2.8e-06,0.0,0 STARLINK-5623,1 55405U 23014Q   23110.37162073  .00000280  00000-0  40996-5 0  9998,2 55405  69.9997 228.4593 0003651 264.7583  95.3196 15.69921560 13497,6737.258,91.724,361.583,356.664,0.0
55405.0,STARLINK-5623,PAYLOAD,2023-04-20 10:26:52,15.69944644,0.0003752,69.998,228.2805,262.4215,97.6555,-3.3105e-05,-4.195e-05,0.0,0 STARLINK-5623,1 55405U 23014Q   23110.43533272 -.00004195  00000-0 -33105-4 0  9992,2 55405  69.9980 228.2805 0003752 262.4215  97.6555 15.69944644 12561,6737.192,91.723,361.585,356.53,0.0
55405.0,STARLINK-5623,PAYLOAD,2023-04-20 16:33:54,15.6991864,0.0003805,69.9985,227.5643,265.0304,95.0457,2.5569e-06,9.4e-07,0.0,0 STARLINK-5623,1 55405U 23014Q   23110.69020932  .00000094  00000-0  25569-5 0  9992,2 55405  69.9985 227.5643 0003805 265.0304  95.0457 15.69918640 13544,6737.267,91.724,361.695,356.568,0.0
55405.0,STARLINK-5623,PAYLOAD,2023-04-21 06:19:39,15.69924125,0.0004064,69.9984,225.9519,270.4647,89.6082,1.109e-05,1.121e-05,0.0,0 STARLINK-5623,1 55405U 23014Q   23111.26365406  .00001121  00000-0  11090-4 0  9999,2 55405  69.9984 225.9519 0004064 270.4647  89.6082 15.69924125 13633,6737.251,91.724,361.854,356.378,0.0
